     3.02           N: GNSS NAV DATA    R: GLONASS          RINEX VERSION / TYPE
CHC                 CHC                 20220602 020556 UTC PGM / RUN BY / DATE 
    18                                                      LEAP SECONDS        
                                                            END OF HEADER       
R05 2022  6  2  0 15  0  9.38968732953D-05  9.09494701773D-13  6.00000000000D+01
      1.80900527344D+04  6.00095748901D-01  2.79396772385D-09  0.00000000000D+00
      1.72100947266D+04  4.17294502258D-01  0.00000000000D+00  1.00000000000D+00
      5.18418457031D+03 -3.49165439606D+00 -2.79396772385D-09  0.00000000000D+00
R14 2022  6  2  2 15  0  2.54204496741D-05  0.00000000000D+00  7.50000000000D+03
     -2.03480654297D+04  8.41417312622D-01 -1.86264514923D-09  0.00000000000D+00
      1.34619995117D+04 -5.82046508789D-01  0.00000000000D+00 -7.00000000000D+00
     -7.39650976562D+03 -3.36990451813D+00  2.79396772385D-09  0.00000000000D+00
R15 2022  6  2  2 15  0  9.57064330578D-05  0.00000000000D+00  7.50000000000D+03
     -1.40072241211D+04 -9.28776741028D-01 -3.72529029846D-09  0.00000000000D+00
      1.88431059570D+04  1.00784587860D+00  0.00000000000D+00  0.00000000000D+00
      9.98443115234D+03 -3.21197128296D+00  1.86264514923D-09  0.00000000000D+00
R17 2022  6  2  2 15  0  5.31286001205D-04  2.72848410532D-12  7.50000000000D+03
     -9.26654394531D+03 -5.58132171631D-01 -3.72529029846D-09  0.00000000000D+00
      6.64249218750D+03 -3.07788276672D+00  0.00000000000D+00  4.00000000000D+00
      2.28229233398D+04  6.65844917297D-01  0.00000000000D+00  0.00000000000D+00
R18 2022  6  2  2 15  0  1.18878670037D-04  9.09494701773D-13  7.50000000000D+03
     -2.41398730469D+03 -1.66952133179D-01 -2.79396772385D-09  0.00000000000D+00
      2.11740297852D+04 -1.92065620422D+00 -9.31322574615D-10 -3.00000000000D+00
      1.39843588867D+04  2.88535499573D+00  0.00000000000D+00  0.00000000000D+00
R19 2022  6  2  2 15  0 -1.91196799278D-04 -9.09494701773D-13  7.50000000000D+03
      4.51691699219D+03  2.77248382568D-01  0.00000000000D+00  0.00000000000D+00
      2.50820961914D+04  1.08897209167D-01 -1.86264514923D-09  3.00000000000D+00
     -1.11094775391D+03  3.60903453827D+00  0.00000000000D+00  0.00000000000D+00
R23 2022  6  2  0 45  0 -4.27886843681D-05 -9.09494701773D-13  1.80000000000D+03
     -6.90283642578D+03  5.11594772339D-01 -3.72529029846D-09  0.00000000000D+00
     -1.25682021484D+04 -2.85164260864D+00  0.00000000000D+00  3.00000000000D+00
      2.10824096680D+04 -1.53090572357D+00  0.00000000000D+00  0.00000000000D+00
R24 2022  6  2  2 15  0  9.66610386968D-05  1.81898940355D-12  7.50000000000D+03
     -1.14128789062D+04 -5.76501846313D-01 -2.79396772385D-09  0.00000000000D+00
     -1.23599199219D+04 -2.56314277649D+00  1.86264514923D-09  2.00000000000D+00
      1.91784628906D+04 -1.99683856964D+00  0.00000000000D+00  0.00000000000D+00
R09 2022  6  2  2 15  0  5.82756474614D-05  2.72848410532D-12  8.82000000000D+03
      1.52774101562D+04 -2.09239578247D+00  0.00000000000D+00  0.00000000000D+00
     -3.12408691406D+02  1.85096740723D+00  0.00000000000D+00 -2.00000000000D+00
      2.04659497070D+04  1.58438301086D+00 -2.79396772385D-09  0.00000000000D+00
R09 2022  6  2  2 45  0  5.82793727517D-05  2.72848410532D-12  9.00000000000D+03
      1.15672231445D+04 -1.98784923553D+00 -9.31322574615D-10  0.00000000000D+00
      3.48398193359D+03  2.34140110016D+00  0.00000000000D+00 -2.00000000000D+00
      2.24928300781D+04  6.52971267700D-01 -1.86264514923D-09  0.00000000000D+00
R14 2022  6  2  2 45  0  2.54195183516D-05  0.00000000000D+00  9.00000000000D+03
     -1.84256665039D+04  1.25261402130D+00 -9.31322574615D-10  0.00000000000D+00
      1.17832832031D+04 -1.29179477692D+00  0.00000000000D+00 -7.00000000000D+00
     -1.30973750000D+04 -2.92317676544D+00  2.79396772385D-09  0.00000000000D+00
R15 2022  6  2  2 45  0  9.57064330578D-05  0.00000000000D+00  9.00000000000D+03
     -1.50387983398D+04 -2.33912467957D-01 -3.72529029846D-09  0.00000000000D+00
      2.02332626953D+04  4.98369216919D-01  0.00000000000D+00  0.00000000000D+00
      3.89170849609D+03 -3.51380443573D+00  1.86264514923D-09  0.00000000000D+00
R17 2022  6  2  2 45  0  5.31291589141D-04  2.72848410532D-12  9.00000000000D+03
     -1.07053813477D+04 -1.02895450592D+00 -3.72529029846D-09  0.00000000000D+00
      1.12746093750D+03 -2.99829673767D+00  1.86264514923D-09  4.00000000000D+00
      2.31241010742D+04 -3.33479881287D-01  0.00000000000D+00  0.00000000000D+00
R18 2022  6  2  2 45  0  1.18881464005D-04  9.09494701773D-13  9.00000000000D+03
     -3.13791357422D+03 -6.57234191895D-01 -3.72529029846D-09  0.00000000000D+00
      1.71874165039D+04 -2.46480941772D+00  0.00000000000D+00 -3.00000000000D+00
      1.85691347656D+04  2.17580986023D+00  0.00000000000D+00  0.00000000000D+00
R19 2022  6  2  2 45  0 -1.91199593246D-04 -9.09494701773D-13  9.00000000000D+03
      4.82939794922D+03  2.93903350830D-02 -1.86264514923D-09  0.00000000000D+00
      2.44696962891D+04 -7.75056838989D-01 -9.31322574615D-10  3.00000000000D+00
      5.34432666016D+03  3.51691055298D+00  0.00000000000D+00  0.00000000000D+00
R01 2022  6  2  2 45  0  9.35792922974D-06  0.00000000000D+00  1.04100000000D+04
     -7.38653955078D+03  2.88012790680D+00 -1.86264514923D-09  0.00000000000D+00
     -1.17135073242D+04  5.49696922302D-01  1.86264514923D-09  1.00000000000D+00
      2.14240581055D+04  1.29538345337D+00 -9.31322574615D-10  0.00000000000D+00
R01 2022  6  2  3 15  0  9.35886055231D-06  0.00000000000D+00  1.08000000000D+04
     -1.93351757813D+03  3.12997150421D+00 -9.31322574615D-10  0.00000000000D+00
     -1.10836186523D+04  1.35644912720D-01  1.86264514923D-09  1.00000000000D+00
      2.28978295898D+04  3.31572532654D-01 -1.86264514923D-09  0.00000000000D+00
R09 2022  6  2  3 15  0  5.82840293646D-05  1.81898940355D-12  1.08000000000D+04
      8.25550341797D+03 -1.66056442261D+00 -1.86264514923D-09  0.00000000000D+00
      7.99689257813D+03  2.63323402405D+00  0.00000000000D+00 -2.00000000000D+00
      2.27856821289D+04 -3.29903602600D-01 -9.31322574615D-10  0.00000000000D+00
R15 2022  6  2  3 15  0  9.57055017352D-05  0.00000000000D+00  1.08000000000D+04
     -1.49372846680D+04  3.15280914307D-01 -2.79396772385D-09  0.00000000000D+00
      2.05195185547D+04 -2.06112861633D-01  0.00000000000D+00  0.00000000000D+00
     -2.50188085937D+03 -3.54403781891D+00  2.79396772385D-09  0.00000000000D+00
R17 2022  6  2  3 15  0  5.31299039721D-04  2.72848410532D-12  1.08000000000D+04
     -1.28972172852D+04 -1.37781906128D+00 -2.79396772385D-09  0.00000000000D+00
     -3.97653515625D+03 -2.62878990173D+00  2.79396772385D-09  4.00000000000D+00
      2.16375195312D+04 -1.30765724182D+00  0.00000000000D+00  0.00000000000D+00
R18 2022  6  2  3 15  0  1.18883326650D-04  9.09494701773D-13  1.08000000000D+04
     -4.81981542969D+03 -1.21333122253D+00 -3.72529029846D-09  0.00000000000D+00
      1.24747397461D+04 -2.72046470642D+00  9.31322574615D-10 -3.00000000000D+00
      2.17163959961D+04  1.29856586456D+00  0.00000000000D+00  0.00000000000D+00
R19 2022  6  2  3 15  0 -1.91202387214D-04 -9.09494701773D-13  1.08000000000D+04
      4.49192187500D+03 -4.35088157654D-01 -2.79396772385D-09  0.00000000000D+00
      2.23768852539D+04 -1.51815986633D+00  0.00000000000D+00  3.00000000000D+00
      1.13862983398D+04  3.15277767181D+00  0.00000000000D+00  0.00000000000D+00
R02 2022  6  2  3 15  0  5.20124100149D-04  1.81898940355D-12  1.18200000000D+04
     -2.05832333984D+04  1.76743888855D+00 -1.86264514923D-09  0.00000000000D+00
     -7.62349462891D+03  2.75198936462D-01  2.79396772385D-09 -4.00000000000D+00
      1.30941352539D+04  2.94354343414D+00  9.31322574615D-10  0.00000000000D+00
R03 2022  6  2  3 15  0  5.77019527555D-05  9.09494701773D-13  1.23000000000D+04
     -2.52253759766D+04 -5.51323890686D-01 -1.86264514923D-09  0.00000000000D+00
      2.75794921875D+02  1.33049011230D-01  1.86264514923D-09  5.00000000000D+00
     -3.91125830078D+03  3.51629638672D+00  2.79396772385D-09  0.00000000000D+00
